FENGYUN 1C DEB          
1 31412U 99025BSY 17345.23646958  .00000405  00000-0  30516-3 0  9996
2 31412  98.5742  81.8959 0091605 255.8528 103.2445 13.97599122200609
